<?xml version="1.0" encoding="UTF-8"?>
<gpx creator="StravaGPX" version="1.1" xmlns="http://www.topografix.com/GPX/1/1" xmlns:xsi="http://www.w3.org/2001/XMLSchema-instance" xsi:schemaLocation="http://www.topografix.com/GPX/1/1 http://www.topografix.com/GPX/1/1/gpx.xsd">
 <metadata>
  <name>Ahuriri Half Marathon</name>
  <author>
   <name>Michael Courtney</name>
   <link href="https://www.strava.com/athletes/18894211"/>
  </author>
  <copyright author="OpenStreetMap contributors">
   <year>2020</year>
   <license>https://www.openstreetmap.org/copyright</license>
  </copyright>
  <link href="https://www.strava.com/routes/3468529230190935366"/>
 </metadata>
 <trk>
  <name>Ahuriri Half Marathon</name>
  <link href="https://www.strava.com/routes/3468529230190935366"/>
  <type>running</type>
  <trkseg>
   <trkpt lat="-39.478530000000006" lon="176.89603000000002">
    <ele>4.16</ele>
   </trkpt>
   <trkpt lat="-39.47856" lon="176.89597">
    <ele>4.0600000000000005</ele>
   </trkpt>
   <trkpt lat="-39.47867" lon="176.89582000000001">
    <ele>3.72</ele>
   </trkpt>
   <trkpt lat="-39.47883" lon="176.89566000000002">
    <ele>3.58</ele>
   </trkpt>
   <trkpt lat="-39.47968" lon="176.89540000000002">
    <ele>3.85</ele>
   </trkpt>
   <trkpt lat="-39.47968" lon="176.89539000000002">
    <ele>3.85</ele>
   </trkpt>
   <trkpt lat="-39.47999" lon="176.89530000000002">
    <ele>3.6600000000000006</ele>
   </trkpt>
   <trkpt lat="-39.480000000000004" lon="176.89530000000002">
    <ele>3.6600000000000006</ele>
   </trkpt>
   <trkpt lat="-39.48046" lon="176.89517">
    <ele>3.34</ele>
   </trkpt>
   <trkpt lat="-39.48053" lon="176.89518">
    <ele>3.34</ele>
   </trkpt>
   <trkpt lat="-39.48055" lon="176.89523000000003">
    <ele>3.34</ele>
   </trkpt>
   <trkpt lat="-39.48062" lon="176.89562">
    <ele>3.04</ele>
   </trkpt>
   <trkpt lat="-39.48073" lon="176.89568000000003">
    <ele>2.93</ele>
   </trkpt>
   <trkpt lat="-39.48077" lon="176.89575000000002">
    <ele>2.93</ele>
   </trkpt>
   <trkpt lat="-39.480900000000005" lon="176.89630000000002">
    <ele>2.7800000000000002</ele>
   </trkpt>
   <trkpt lat="-39.48115000000001" lon="176.89732">
    <ele>2.8100000000000005</ele>
   </trkpt>
   <trkpt lat="-39.481260000000006" lon="176.89765000000003">
    <ele>3.0500000000000003</ele>
   </trkpt>
   <trkpt lat="-39.48129" lon="176.89770000000001">
    <ele>3.16</ele>
   </trkpt>
   <trkpt lat="-39.481320000000004" lon="176.89770000000001">
    <ele>3.16</ele>
   </trkpt>
   <trkpt lat="-39.48149" lon="176.89761000000001">
    <ele>3.2</ele>
   </trkpt>
   <trkpt lat="-39.48176" lon="176.89731">
    <ele>3.21</ele>
   </trkpt>
   <trkpt lat="-39.4818" lon="176.89712">
    <ele>3.2700000000000005</ele>
   </trkpt>
   <trkpt lat="-39.4818" lon="176.89711000000003">
    <ele>3.2700000000000005</ele>
   </trkpt>
   <trkpt lat="-39.48183" lon="176.89697">
    <ele>3.2700000000000005</ele>
   </trkpt>
   <trkpt lat="-39.48175000376381" lon="176.89603499915626">
    <ele>3.25</ele>
   </trkpt>
   <trkpt lat="-39.48167" lon="176.8951">
    <ele>3.39</ele>
   </trkpt>
   <trkpt lat="-39.48169" lon="176.895">
    <ele>3.39</ele>
   </trkpt>
   <trkpt lat="-39.481730000000006" lon="176.89496000000003">
    <ele>3.36</ele>
   </trkpt>
   <trkpt lat="-39.48185" lon="176.89488">
    <ele>3.24</ele>
   </trkpt>
   <trkpt lat="-39.48212" lon="176.89476000000002">
    <ele>3.3800000000000003</ele>
   </trkpt>
   <trkpt lat="-39.48219" lon="176.89469000000003">
    <ele>3.3800000000000003</ele>
   </trkpt>
   <trkpt lat="-39.482330000000005" lon="176.89471">
    <ele>3.6</ele>
   </trkpt>
   <trkpt lat="-39.4825" lon="176.89456">
    <ele>3.5</ele>
   </trkpt>
   <trkpt lat="-39.483170000456134" lon="176.89419500357866">
    <ele>3.74</ele>
   </trkpt>
   <trkpt lat="-39.48384" lon="176.89383">
    <ele>3.9000000000000004</ele>
   </trkpt>
   <trkpt lat="-39.48395" lon="176.89382">
    <ele>4.050000000000001</ele>
   </trkpt>
   <trkpt lat="-39.48405" lon="176.89375">
    <ele>4.050000000000001</ele>
   </trkpt>
   <trkpt lat="-39.484640000000006" lon="176.89343000000002">
    <ele>4.45</ele>
   </trkpt>
   <trkpt lat="-39.48474" lon="176.89335000000003">
    <ele>4.45</ele>
   </trkpt>
   <trkpt lat="-39.48478" lon="176.89334000000002">
    <ele>4.45</ele>
   </trkpt>
   <trkpt lat="-39.48489" lon="176.89336">
    <ele>4.45</ele>
   </trkpt>
   <trkpt lat="-39.48500000000001" lon="176.89334000000002">
    <ele>4.45</ele>
   </trkpt>
   <trkpt lat="-39.48554" lon="176.89306000000002">
    <ele>4.29</ele>
   </trkpt>
   <trkpt lat="-39.48561" lon="176.89299000000003">
    <ele>4.2</ele>
   </trkpt>
   <trkpt lat="-39.48574" lon="176.89271000000002">
    <ele>3.5900000000000003</ele>
   </trkpt>
   <trkpt lat="-39.48575" lon="176.89242000000002">
    <ele>3.49</ele>
   </trkpt>
   <trkpt lat="-39.48566" lon="176.89241">
    <ele>2.9800000000000004</ele>
   </trkpt>
   <trkpt lat="-39.485580000000006" lon="176.89236000000002">
    <ele>2.9600000000000004</ele>
   </trkpt>
   <trkpt lat="-39.48523" lon="176.89199000000002">
    <ele>2.36</ele>
   </trkpt>
   <trkpt lat="-39.48521" lon="176.89194">
    <ele>2.36</ele>
   </trkpt>
   <trkpt lat="-39.48514" lon="176.89147000000003">
    <ele>2.0500000000000003</ele>
   </trkpt>
   <trkpt lat="-39.48509000000001" lon="176.8914">
    <ele>1.9100000000000001</ele>
   </trkpt>
   <trkpt lat="-39.48512" lon="176.89137000000002">
    <ele>1.9100000000000001</ele>
   </trkpt>
   <trkpt lat="-39.48516" lon="176.89122">
    <ele>1.9400000000000002</ele>
   </trkpt>
   <trkpt lat="-39.48527" lon="176.89123">
    <ele>1.9400000000000002</ele>
   </trkpt>
   <trkpt lat="-39.48527" lon="176.89101000000002">
    <ele>2.1</ele>
   </trkpt>
   <trkpt lat="-39.48516" lon="176.89089">
    <ele>2.1</ele>
   </trkpt>
   <trkpt lat="-39.48516" lon="176.89083000000002">
    <ele>2.1</ele>
   </trkpt>
   <trkpt lat="-39.48527" lon="176.89073000000002">
    <ele>2.0900000000000003</ele>
   </trkpt>
   <trkpt lat="-39.48512" lon="176.89015">
    <ele>2.12</ele>
   </trkpt>
   <trkpt lat="-39.485040000000005" lon="176.89002000000002">
    <ele>2.1300000000000003</ele>
   </trkpt>
   <trkpt lat="-39.484640000000006" lon="176.88985000000002">
    <ele>1.67</ele>
   </trkpt>
   <trkpt lat="-39.484185000060094" lon="176.88969499897132">
    <ele>1.75</ele>
   </trkpt>
   <trkpt lat="-39.48373" lon="176.88954">
    <ele>1.8200000000000003</ele>
   </trkpt>
   <trkpt lat="-39.48304" lon="176.88920000000002">
    <ele>2.45</ele>
   </trkpt>
   <trkpt lat="-39.48258000005388" lon="176.88902499881317">
    <ele>2.67</ele>
   </trkpt>
   <trkpt lat="-39.48212" lon="176.88885000000002">
    <ele>2.91</ele>
   </trkpt>
   <trkpt lat="-39.48198" lon="176.88883">
    <ele>2.89</ele>
   </trkpt>
   <trkpt lat="-39.48185" lon="176.88885000000002">
    <ele>2.8800000000000003</ele>
   </trkpt>
   <trkpt lat="-39.4818" lon="176.88893000000002">
    <ele>2.8800000000000003</ele>
   </trkpt>
   <trkpt lat="-39.4818" lon="176.88914000000003">
    <ele>2.7</ele>
   </trkpt>
   <trkpt lat="-39.48171000000001" lon="176.88917">
    <ele>2.7</ele>
   </trkpt>
   <trkpt lat="-39.48172" lon="176.88938000000002">
    <ele>2.8100000000000005</ele>
   </trkpt>
   <trkpt lat="-39.481620003106585" lon="176.89023000111678">
    <ele>2.3000000000000003</ele>
   </trkpt>
   <trkpt lat="-39.48152" lon="176.89108000000002">
    <ele>2.2900000000000005</ele>
   </trkpt>
   <trkpt lat="-39.48142" lon="176.89184">
    <ele>2.23</ele>
   </trkpt>
   <trkpt lat="-39.48134" lon="176.89218000000002">
    <ele>2.2700000000000005</ele>
   </trkpt>
   <trkpt lat="-39.481350000000006" lon="176.89218000000002">
    <ele>1.33</ele>
   </trkpt>
   <trkpt lat="-39.481210000000004" lon="176.89266">
    <ele>1.2200000000000002</ele>
   </trkpt>
   <trkpt lat="-39.48109" lon="176.89291">
    <ele>1.1500000000000001</ele>
   </trkpt>
   <trkpt lat="-39.48096" lon="176.89312">
    <ele>1.11</ele>
   </trkpt>
   <trkpt lat="-39.480970000000006" lon="176.89312">
    <ele>1.02</ele>
   </trkpt>
   <trkpt lat="-39.48087" lon="176.89326000000003">
    <ele>1.0</ele>
   </trkpt>
   <trkpt lat="-39.480500000000006" lon="176.89349">
    <ele>1.3</ele>
   </trkpt>
   <trkpt lat="-39.480000000000004" lon="176.89362000000003">
    <ele>1.3800000000000001</ele>
   </trkpt>
   <trkpt lat="-39.47964" lon="176.89368000000002">
    <ele>1.3900000000000001</ele>
   </trkpt>
   <trkpt lat="-39.47943" lon="176.89364">
    <ele>1.3200000000000003</ele>
   </trkpt>
   <trkpt lat="-39.479400000000005" lon="176.89349">
    <ele>1.27</ele>
   </trkpt>
   <trkpt lat="-39.47954" lon="176.893">
    <ele>4.390000000000001</ele>
   </trkpt>
   <trkpt lat="-39.47977" lon="176.89257">
    <ele>0.9</ele>
   </trkpt>
   <trkpt lat="-39.47997" lon="176.89213">
    <ele>0.93</ele>
   </trkpt>
   <trkpt lat="-39.48012000000001" lon="176.89178">
    <ele>1.2100000000000002</ele>
   </trkpt>
   <trkpt lat="-39.48021000000001" lon="176.89152">
    <ele>1.31</ele>
   </trkpt>
   <trkpt lat="-39.4804" lon="176.89106">
    <ele>1.3800000000000001</ele>
   </trkpt>
   <trkpt lat="-39.480450000000005" lon="176.89042">
    <ele>1.35</ele>
   </trkpt>
   <trkpt lat="-39.48057" lon="176.88946">
    <ele>1.4000000000000001</ele>
   </trkpt>
   <trkpt lat="-39.48055" lon="176.88887000000003">
    <ele>1.4400000000000002</ele>
   </trkpt>
   <trkpt lat="-39.48042" lon="176.88827">
    <ele>3.33</ele>
   </trkpt>
   <trkpt lat="-39.48035" lon="176.88803000000001">
    <ele>3.33</ele>
   </trkpt>
   <trkpt lat="-39.48008" lon="176.88757">
    <ele>2.9899999999999998</ele>
   </trkpt>
   <trkpt lat="-39.4799" lon="176.8872">
    <ele>2.4600000000000004</ele>
   </trkpt>
   <trkpt lat="-39.47979" lon="176.88695">
    <ele>1.98</ele>
   </trkpt>
   <trkpt lat="-39.47943" lon="176.88655000000003">
    <ele>0.58</ele>
   </trkpt>
   <trkpt lat="-39.47936" lon="176.88634000000002">
    <ele>0.58</ele>
   </trkpt>
   <trkpt lat="-39.47921" lon="176.88566">
    <ele>2.4000000000000004</ele>
   </trkpt>
   <trkpt lat="-39.47898" lon="176.88529000000003">
    <ele>2.82</ele>
   </trkpt>
   <trkpt lat="-39.47842" lon="176.88474000000002">
    <ele>2.71</ele>
   </trkpt>
   <trkpt lat="-39.47827" lon="176.88444">
    <ele>3.12</ele>
   </trkpt>
   <trkpt lat="-39.478170000000006" lon="176.88396">
    <ele>3.3800000000000003</ele>
   </trkpt>
   <trkpt lat="-39.47809" lon="176.8839">
    <ele>3.6400000000000006</ele>
   </trkpt>
   <trkpt lat="-39.47798" lon="176.88388">
    <ele>3.6400000000000006</ele>
   </trkpt>
   <trkpt lat="-39.47786" lon="176.88396">
    <ele>3.72</ele>
   </trkpt>
   <trkpt lat="-39.4778" lon="176.88393000000002">
    <ele>3.72</ele>
   </trkpt>
   <trkpt lat="-39.47773" lon="176.88386000000003">
    <ele>3.68</ele>
   </trkpt>
   <trkpt lat="-39.47714666834124" lon="176.88341665922457">
    <ele>3.73</ele>
   </trkpt>
   <trkpt lat="-39.476563334999064" lon="176.88297332588456">
    <ele>3.87</ele>
   </trkpt>
   <trkpt lat="-39.47598" lon="176.88253">
    <ele>3.7800000000000002</ele>
   </trkpt>
   <trkpt lat="-39.47587" lon="176.88241000000002">
    <ele>3.7600000000000002</ele>
   </trkpt>
   <trkpt lat="-39.475750000000005" lon="176.88221000000001">
    <ele>3.8800000000000003</ele>
   </trkpt>
   <trkpt lat="-39.475730000000006" lon="176.88214000000002">
    <ele>3.8800000000000003</ele>
   </trkpt>
   <trkpt lat="-39.475640000000006" lon="176.88204000000002">
    <ele>3.87</ele>
   </trkpt>
   <trkpt lat="-39.47518" lon="176.88179000000002">
    <ele>3.2900000000000005</ele>
   </trkpt>
   <trkpt lat="-39.47448" lon="176.88134000000002">
    <ele>3.5100000000000002</ele>
   </trkpt>
   <trkpt lat="-39.47442" lon="176.88126000000003">
    <ele>3.6100000000000003</ele>
   </trkpt>
   <trkpt lat="-39.47424" lon="176.88089000000002">
    <ele>3.7900000000000005</ele>
   </trkpt>
   <trkpt lat="-39.47417" lon="176.88084">
    <ele>3.7900000000000005</ele>
   </trkpt>
   <trkpt lat="-39.47339" lon="176.88048">
    <ele>4.13</ele>
   </trkpt>
   <trkpt lat="-39.47292" lon="176.88008000000002">
    <ele>3.95</ele>
   </trkpt>
   <trkpt lat="-39.47216" lon="176.87966">
    <ele>3.8800000000000003</ele>
   </trkpt>
   <trkpt lat="-39.471620000720506" lon="176.87923499665973">
    <ele>2.52</ele>
   </trkpt>
   <trkpt lat="-39.47108" lon="176.87881000000002">
    <ele>2.7700000000000005</ele>
   </trkpt>
   <trkpt lat="-39.47099" lon="176.8787">
    <ele>3.1400000000000006</ele>
   </trkpt>
   <trkpt lat="-39.470940000000006" lon="176.87844">
    <ele>3.71</ele>
   </trkpt>
   <trkpt lat="-39.4709" lon="176.87839000000002">
    <ele>3.71</ele>
   </trkpt>
   <trkpt lat="-39.47063" lon="176.87825">
    <ele>3.98</ele>
   </trkpt>
   <trkpt lat="-39.47043" lon="176.87818000000001">
    <ele>4.0600000000000005</ele>
   </trkpt>
   <trkpt lat="-39.46999" lon="176.87814">
    <ele>4.24</ele>
   </trkpt>
   <trkpt lat="-39.46967" lon="176.87805">
    <ele>4.36</ele>
   </trkpt>
   <trkpt lat="-39.46907" lon="176.87773">
    <ele>4.37</ele>
   </trkpt>
   <trkpt lat="-39.46889" lon="176.87769">
    <ele>4.580000000000001</ele>
   </trkpt>
   <trkpt lat="-39.46812000108666" lon="176.87732999202183">
    <ele>4.49</ele>
   </trkpt>
   <trkpt lat="-39.46735000106336" lon="176.87696999201106">
    <ele>4.410000000000001</ele>
   </trkpt>
   <trkpt lat="-39.46658" lon="176.87661000000003">
    <ele>4.5200000000000005</ele>
   </trkpt>
   <trkpt lat="-39.466045000441355" lon="176.87632999790267">
    <ele>4.42</ele>
   </trkpt>
   <trkpt lat="-39.46551" lon="176.87605000000002">
    <ele>4.109999999999999</ele>
   </trkpt>
   <trkpt lat="-39.46473" lon="176.87571000000003">
    <ele>4.3100000000000005</ele>
   </trkpt>
   <trkpt lat="-39.464130000000004" lon="176.87544000000003">
    <ele>4.180000000000001</ele>
   </trkpt>
   <trkpt lat="-39.463820000000005" lon="176.87529">
    <ele>4.1000000000000005</ele>
   </trkpt>
   <trkpt lat="-39.463730000000005" lon="176.87525000000002">
    <ele>4.12</ele>
   </trkpt>
   <trkpt lat="-39.46452" lon="176.87563">
    <ele>4.38</ele>
   </trkpt>
   <trkpt lat="-39.46501500039591" lon="176.87583999859416">
    <ele>4.2</ele>
   </trkpt>
   <trkpt lat="-39.46551" lon="176.87605000000002">
    <ele>4.109999999999999</ele>
   </trkpt>
   <trkpt lat="-39.466045000230096" lon="176.8763299977921">
    <ele>4.42</ele>
   </trkpt>
   <trkpt lat="-39.46658" lon="176.87661000000003">
    <ele>4.5200000000000005</ele>
   </trkpt>
   <trkpt lat="-39.46735000113324" lon="176.87696999204374">
    <ele>4.410000000000001</ele>
   </trkpt>
   <trkpt lat="-39.468120001156535" lon="176.8773299920545">
    <ele>4.49</ele>
   </trkpt>
   <trkpt lat="-39.46889" lon="176.87769">
    <ele>4.580000000000001</ele>
   </trkpt>
   <trkpt lat="-39.46907" lon="176.87773">
    <ele>4.37</ele>
   </trkpt>
   <trkpt lat="-39.46967" lon="176.87805">
    <ele>4.24</ele>
   </trkpt>
   <trkpt lat="-39.46999" lon="176.87814">
    <ele>4.24</ele>
   </trkpt>
   <trkpt lat="-39.47043" lon="176.87818000000001">
    <ele>3.98</ele>
   </trkpt>
   <trkpt lat="-39.470800000000004" lon="176.87832">
    <ele>3.71</ele>
   </trkpt>
   <trkpt lat="-39.4709" lon="176.87839000000002">
    <ele>3.71</ele>
   </trkpt>
   <trkpt lat="-39.470940000000006" lon="176.87844">
    <ele>3.1400000000000006</ele>
   </trkpt>
   <trkpt lat="-39.47099" lon="176.8787">
    <ele>3.1400000000000006</ele>
   </trkpt>
   <trkpt lat="-39.47108" lon="176.87881000000002">
    <ele>2.7700000000000005</ele>
   </trkpt>
   <trkpt lat="-39.471620000826476" lon="176.87923499674312">
    <ele>2.52</ele>
   </trkpt>
   <trkpt lat="-39.47216" lon="176.87966">
    <ele>3.8800000000000003</ele>
   </trkpt>
   <trkpt lat="-39.47292" lon="176.88008000000002">
    <ele>3.97</ele>
   </trkpt>
   <trkpt lat="-39.47339" lon="176.88048">
    <ele>4.13</ele>
   </trkpt>
   <trkpt lat="-39.47417" lon="176.88084">
    <ele>3.7900000000000005</ele>
   </trkpt>
   <trkpt lat="-39.47424" lon="176.88089000000002">
    <ele>3.7900000000000005</ele>
   </trkpt>
   <trkpt lat="-39.47442" lon="176.88126000000003">
    <ele>3.6100000000000003</ele>
   </trkpt>
   <trkpt lat="-39.47448" lon="176.88134000000002">
    <ele>3.5100000000000002</ele>
   </trkpt>
   <trkpt lat="-39.47518" lon="176.88179000000002">
    <ele>3.2900000000000005</ele>
   </trkpt>
   <trkpt lat="-39.475640000000006" lon="176.88204000000002">
    <ele>3.8800000000000003</ele>
   </trkpt>
   <trkpt lat="-39.475730000000006" lon="176.88214000000002">
    <ele>3.8800000000000003</ele>
   </trkpt>
   <trkpt lat="-39.475750000000005" lon="176.88221000000001">
    <ele>3.8800000000000003</ele>
   </trkpt>
   <trkpt lat="-39.47587" lon="176.88241000000002">
    <ele>3.7600000000000002</ele>
   </trkpt>
   <trkpt lat="-39.47598" lon="176.88253">
    <ele>3.7800000000000002</ele>
   </trkpt>
   <trkpt lat="-39.47656333502555" lon="176.88297332590474">
    <ele>3.87</ele>
   </trkpt>
   <trkpt lat="-39.47714666836774" lon="176.8834166592447">
    <ele>3.73</ele>
   </trkpt>
   <trkpt lat="-39.47773" lon="176.88386000000003">
    <ele>3.68</ele>
   </trkpt>
   <trkpt lat="-39.4778" lon="176.88393000000002">
    <ele>3.72</ele>
   </trkpt>
   <trkpt lat="-39.47786" lon="176.88396">
    <ele>3.72</ele>
   </trkpt>
   <trkpt lat="-39.47798" lon="176.88388">
    <ele>3.6400000000000006</ele>
   </trkpt>
   <trkpt lat="-39.47809" lon="176.8839">
    <ele>3.6400000000000006</ele>
   </trkpt>
   <trkpt lat="-39.478170000000006" lon="176.88396">
    <ele>3.3800000000000003</ele>
   </trkpt>
   <trkpt lat="-39.47827" lon="176.88444">
    <ele>3.12</ele>
   </trkpt>
   <trkpt lat="-39.47842" lon="176.88474000000002">
    <ele>2.71</ele>
   </trkpt>
   <trkpt lat="-39.47898" lon="176.88529000000003">
    <ele>2.82</ele>
   </trkpt>
   <trkpt lat="-39.47921" lon="176.88566">
    <ele>2.4000000000000004</ele>
   </trkpt>
   <trkpt lat="-39.47936" lon="176.88634000000002">
    <ele>0.55</ele>
   </trkpt>
   <trkpt lat="-39.47943" lon="176.88655000000003">
    <ele>0.58</ele>
   </trkpt>
   <trkpt lat="-39.47979" lon="176.88695">
    <ele>1.98</ele>
   </trkpt>
   <trkpt lat="-39.4799" lon="176.8872">
    <ele>2.4600000000000004</ele>
   </trkpt>
   <trkpt lat="-39.48008" lon="176.88757">
    <ele>2.9899999999999998</ele>
   </trkpt>
   <trkpt lat="-39.48035" lon="176.88803000000001">
    <ele>3.33</ele>
   </trkpt>
   <trkpt lat="-39.48042" lon="176.88827">
    <ele>3.33</ele>
   </trkpt>
   <trkpt lat="-39.48051" lon="176.88867000000002">
    <ele>3.24</ele>
   </trkpt>
   <trkpt lat="-39.480520000000006" lon="176.88867000000002">
    <ele>1.4700000000000002</ele>
   </trkpt>
   <trkpt lat="-39.48051" lon="176.88934">
    <ele>1.42</ele>
   </trkpt>
   <trkpt lat="-39.480430001999935" lon="176.89002500086977">
    <ele>1.36</ele>
   </trkpt>
   <trkpt lat="-39.48035" lon="176.89071">
    <ele>1.35</ele>
   </trkpt>
   <trkpt lat="-39.480185001183585" lon="176.89126000167778">
    <ele>1.25</ele>
   </trkpt>
   <trkpt lat="-39.48002" lon="176.89181000000002">
    <ele>0.8300000000000001</ele>
   </trkpt>
   <trkpt lat="-39.47955" lon="176.89280000000002">
    <ele>0.22</ele>
   </trkpt>
   <trkpt lat="-39.479330000000004" lon="176.89351000000002">
    <ele>1.0</ele>
   </trkpt>
   <trkpt lat="-39.47939" lon="176.89372">
    <ele>1.2300000000000002</ele>
   </trkpt>
   <trkpt lat="-39.47975" lon="176.89375">
    <ele>1.2300000000000002</ele>
   </trkpt>
   <trkpt lat="-39.480360000000005" lon="176.89363">
    <ele>1.01</ele>
   </trkpt>
   <trkpt lat="-39.480700000000006" lon="176.89352000000002">
    <ele>0.8700000000000001</ele>
   </trkpt>
   <trkpt lat="-39.480940000000004" lon="176.89332000000002">
    <ele>0.8</ele>
   </trkpt>
   <trkpt lat="-39.481190000000005" lon="176.89292">
    <ele>0.77</ele>
   </trkpt>
   <trkpt lat="-39.48142" lon="176.89219000000003">
    <ele>1.31</ele>
   </trkpt>
   <trkpt lat="-39.48134" lon="176.89216000000002">
    <ele>2.2600000000000002</ele>
   </trkpt>
   <trkpt lat="-39.48142" lon="176.89184">
    <ele>2.23</ele>
   </trkpt>
   <trkpt lat="-39.481540004013496" lon="176.8908750014606">
    <ele>2.2600000000000002</ele>
   </trkpt>
   <trkpt lat="-39.481660000000005" lon="176.88991000000001">
    <ele>2.5500000000000003</ele>
   </trkpt>
   <trkpt lat="-39.481660000000005" lon="176.8899">
    <ele>2.5500000000000003</ele>
   </trkpt>
   <trkpt lat="-39.48172" lon="176.88938000000002">
    <ele>2.8100000000000005</ele>
   </trkpt>
   <trkpt lat="-39.48171000000001" lon="176.88917">
    <ele>2.7</ele>
   </trkpt>
   <trkpt lat="-39.4818" lon="176.88914000000003">
    <ele>2.8000000000000003</ele>
   </trkpt>
   <trkpt lat="-39.4818" lon="176.88893000000002">
    <ele>2.8800000000000003</ele>
   </trkpt>
   <trkpt lat="-39.48183" lon="176.88888">
    <ele>2.8800000000000003</ele>
   </trkpt>
   <trkpt lat="-39.48185" lon="176.88885000000002">
    <ele>2.9000000000000004</ele>
   </trkpt>
   <trkpt lat="-39.48198" lon="176.88883">
    <ele>2.89</ele>
   </trkpt>
   <trkpt lat="-39.48212" lon="176.88885000000002">
    <ele>2.91</ele>
   </trkpt>
   <trkpt lat="-39.482490000000006" lon="176.88899">
    <ele>2.67</ele>
   </trkpt>
   <trkpt lat="-39.48304" lon="176.88920000000002">
    <ele>2.45</ele>
   </trkpt>
   <trkpt lat="-39.48373" lon="176.88954">
    <ele>1.8200000000000003</ele>
   </trkpt>
   <trkpt lat="-39.4841850001457" lon="176.88969499900054">
    <ele>1.6500000000000001</ele>
   </trkpt>
   <trkpt lat="-39.484640000000006" lon="176.88985000000002">
    <ele>1.67</ele>
   </trkpt>
   <trkpt lat="-39.485040000000005" lon="176.89002000000002">
    <ele>2.1300000000000003</ele>
   </trkpt>
   <trkpt lat="-39.48512" lon="176.89015">
    <ele>2.12</ele>
   </trkpt>
   <trkpt lat="-39.48527" lon="176.89073000000002">
    <ele>2.0900000000000003</ele>
   </trkpt>
   <trkpt lat="-39.48516" lon="176.89083000000002">
    <ele>2.1</ele>
   </trkpt>
   <trkpt lat="-39.48516" lon="176.89089">
    <ele>2.1</ele>
   </trkpt>
   <trkpt lat="-39.48527" lon="176.89101000000002">
    <ele>2.1</ele>
   </trkpt>
   <trkpt lat="-39.48527" lon="176.89123">
    <ele>1.9400000000000002</ele>
   </trkpt>
   <trkpt lat="-39.48516" lon="176.89122">
    <ele>1.9400000000000002</ele>
   </trkpt>
   <trkpt lat="-39.48512" lon="176.89137000000002">
    <ele>1.9100000000000001</ele>
   </trkpt>
   <trkpt lat="-39.48509000000001" lon="176.8914">
    <ele>1.9100000000000001</ele>
   </trkpt>
   <trkpt lat="-39.48514" lon="176.89147000000003">
    <ele>2.0500000000000003</ele>
   </trkpt>
   <trkpt lat="-39.48521" lon="176.89194">
    <ele>2.36</ele>
   </trkpt>
   <trkpt lat="-39.48523" lon="176.89199000000002">
    <ele>2.36</ele>
   </trkpt>
   <trkpt lat="-39.485580000000006" lon="176.89236000000002">
    <ele>2.9600000000000004</ele>
   </trkpt>
   <trkpt lat="-39.48566" lon="176.89241">
    <ele>2.9800000000000004</ele>
   </trkpt>
   <trkpt lat="-39.48565" lon="176.89257">
    <ele>2.9400000000000004</ele>
   </trkpt>
   <trkpt lat="-39.48575" lon="176.89260000000002">
    <ele>3.5900000000000003</ele>
   </trkpt>
   <trkpt lat="-39.48574" lon="176.89271000000002">
    <ele>3.5900000000000003</ele>
   </trkpt>
   <trkpt lat="-39.485670000000006" lon="176.89288000000002">
    <ele>4.2</ele>
   </trkpt>
   <trkpt lat="-39.48561" lon="176.89299000000003">
    <ele>4.29</ele>
   </trkpt>
   <trkpt lat="-39.48554" lon="176.89306000000002">
    <ele>4.29</ele>
   </trkpt>
   <trkpt lat="-39.48525" lon="176.89322">
    <ele>4.37</ele>
   </trkpt>
   <trkpt lat="-39.48500000000001" lon="176.89334000000002">
    <ele>4.45</ele>
   </trkpt>
   <trkpt lat="-39.48489" lon="176.89336">
    <ele>4.45</ele>
   </trkpt>
   <trkpt lat="-39.48478" lon="176.89334000000002">
    <ele>4.45</ele>
   </trkpt>
   <trkpt lat="-39.48474" lon="176.89335000000003">
    <ele>4.45</ele>
   </trkpt>
   <trkpt lat="-39.484640000000006" lon="176.89343000000002">
    <ele>4.45</ele>
   </trkpt>
   <trkpt lat="-39.48405" lon="176.89375">
    <ele>4.050000000000001</ele>
   </trkpt>
   <trkpt lat="-39.48395" lon="176.89382">
    <ele>4.050000000000001</ele>
   </trkpt>
   <trkpt lat="-39.48384" lon="176.89383">
    <ele>3.9000000000000004</ele>
   </trkpt>
   <trkpt lat="-39.483170000684986" lon="176.894195003454">
    <ele>3.74</ele>
   </trkpt>
   <trkpt lat="-39.4825" lon="176.89456">
    <ele>3.5</ele>
   </trkpt>
   <trkpt lat="-39.482330000000005" lon="176.89471">
    <ele>3.6</ele>
   </trkpt>
   <trkpt lat="-39.48219" lon="176.89469000000003">
    <ele>3.3800000000000003</ele>
   </trkpt>
   <trkpt lat="-39.48212" lon="176.89476000000002">
    <ele>3.3800000000000003</ele>
   </trkpt>
   <trkpt lat="-39.48185" lon="176.89488">
    <ele>3.24</ele>
   </trkpt>
   <trkpt lat="-39.481730000000006" lon="176.89496000000003">
    <ele>3.36</ele>
   </trkpt>
   <trkpt lat="-39.48169" lon="176.895">
    <ele>3.39</ele>
   </trkpt>
   <trkpt lat="-39.48167" lon="176.8951">
    <ele>3.39</ele>
   </trkpt>
   <trkpt lat="-39.481750003724144" lon="176.89603499869284">
    <ele>3.25</ele>
   </trkpt>
   <trkpt lat="-39.48183" lon="176.89697">
    <ele>3.35</ele>
   </trkpt>
   <trkpt lat="-39.48176" lon="176.89731">
    <ele>3.25</ele>
   </trkpt>
   <trkpt lat="-39.48149" lon="176.89761000000001">
    <ele>3.2</ele>
   </trkpt>
   <trkpt lat="-39.481320000000004" lon="176.89770000000001">
    <ele>3.16</ele>
   </trkpt>
   <trkpt lat="-39.48129" lon="176.89770000000001">
    <ele>3.0500000000000003</ele>
   </trkpt>
   <trkpt lat="-39.481260000000006" lon="176.89765000000003">
    <ele>3.0500000000000003</ele>
   </trkpt>
   <trkpt lat="-39.48115000000001" lon="176.89732">
    <ele>2.8100000000000005</ele>
   </trkpt>
   <trkpt lat="-39.480960002619746" lon="176.89653499777586">
    <ele>2.74</ele>
   </trkpt>
   <trkpt lat="-39.48077" lon="176.89575000000002">
    <ele>2.93</ele>
   </trkpt>
   <trkpt lat="-39.48073" lon="176.89568000000003">
    <ele>3.04</ele>
   </trkpt>
   <trkpt lat="-39.48062" lon="176.89562">
    <ele>3.04</ele>
   </trkpt>
   <trkpt lat="-39.48055" lon="176.89523000000003">
    <ele>3.34</ele>
   </trkpt>
   <trkpt lat="-39.48053" lon="176.89518">
    <ele>3.34</ele>
   </trkpt>
   <trkpt lat="-39.48046" lon="176.89517">
    <ele>3.34</ele>
   </trkpt>
   <trkpt lat="-39.480180000000004" lon="176.89524">
    <ele>3.36</ele>
   </trkpt>
   <trkpt lat="-39.479505000202046" lon="176.89545000203384">
    <ele>3.7600000000000002</ele>
   </trkpt>
   <trkpt lat="-39.47883" lon="176.89566000000002">
    <ele>3.58</ele>
   </trkpt>
   <trkpt lat="-39.47862000000001" lon="176.89589">
    <ele>3.98</ele>
   </trkpt>
   <trkpt lat="-39.47863" lon="176.89588">
    <ele>3.96</ele>
   </trkpt>
   <trkpt lat="-39.47883" lon="176.89566000000002">
    <ele>3.58</ele>
   </trkpt>
   <trkpt lat="-39.47950500017568" lon="176.89545000204205">
    <ele>3.7600000000000002</ele>
   </trkpt>
   <trkpt lat="-39.480180000000004" lon="176.89524">
    <ele>3.36</ele>
   </trkpt>
   <trkpt lat="-39.48046" lon="176.89517">
    <ele>3.34</ele>
   </trkpt>
   <trkpt lat="-39.48053" lon="176.89518">
    <ele>3.34</ele>
   </trkpt>
   <trkpt lat="-39.48055" lon="176.89523000000003">
    <ele>3.34</ele>
   </trkpt>
   <trkpt lat="-39.48062" lon="176.89562">
    <ele>3.04</ele>
   </trkpt>
   <trkpt lat="-39.48073" lon="176.89568000000003">
    <ele>3.04</ele>
   </trkpt>
   <trkpt lat="-39.48077" lon="176.89575000000002">
    <ele>2.93</ele>
   </trkpt>
   <trkpt lat="-39.480960002658335" lon="176.8965349979353">
    <ele>2.74</ele>
   </trkpt>
   <trkpt lat="-39.48115000000001" lon="176.89732">
    <ele>2.8100000000000005</ele>
   </trkpt>
   <trkpt lat="-39.481260000000006" lon="176.89765000000003">
    <ele>3.0500000000000003</ele>
   </trkpt>
   <trkpt lat="-39.48129" lon="176.89770000000001">
    <ele>3.0500000000000003</ele>
   </trkpt>
   <trkpt lat="-39.481320000000004" lon="176.89770000000001">
    <ele>3.16</ele>
   </trkpt>
   <trkpt lat="-39.48149" lon="176.89761000000001">
    <ele>3.2</ele>
   </trkpt>
   <trkpt lat="-39.48176" lon="176.89731">
    <ele>3.25</ele>
   </trkpt>
   <trkpt lat="-39.48183" lon="176.89697">
    <ele>3.35</ele>
   </trkpt>
   <trkpt lat="-39.48175000376381" lon="176.89603499915626">
    <ele>3.25</ele>
   </trkpt>
   <trkpt lat="-39.48167" lon="176.8951">
    <ele>3.39</ele>
   </trkpt>
   <trkpt lat="-39.48169" lon="176.895">
    <ele>3.39</ele>
   </trkpt>
   <trkpt lat="-39.481730000000006" lon="176.89496000000003">
    <ele>3.36</ele>
   </trkpt>
   <trkpt lat="-39.48185" lon="176.89488">
    <ele>3.24</ele>
   </trkpt>
   <trkpt lat="-39.48212" lon="176.89476000000002">
    <ele>3.3800000000000003</ele>
   </trkpt>
   <trkpt lat="-39.48219" lon="176.89469000000003">
    <ele>3.3800000000000003</ele>
   </trkpt>
   <trkpt lat="-39.482330000000005" lon="176.89471">
    <ele>3.6</ele>
   </trkpt>
   <trkpt lat="-39.4825" lon="176.89456">
    <ele>3.5</ele>
   </trkpt>
   <trkpt lat="-39.483170000456134" lon="176.89419500357866">
    <ele>3.74</ele>
   </trkpt>
   <trkpt lat="-39.48384" lon="176.89383">
    <ele>3.9000000000000004</ele>
   </trkpt>
   <trkpt lat="-39.48395" lon="176.89382">
    <ele>4.050000000000001</ele>
   </trkpt>
   <trkpt lat="-39.48405" lon="176.89375">
    <ele>4.050000000000001</ele>
   </trkpt>
   <trkpt lat="-39.484640000000006" lon="176.89343000000002">
    <ele>4.45</ele>
   </trkpt>
   <trkpt lat="-39.48474" lon="176.89335000000003">
    <ele>4.45</ele>
   </trkpt>
   <trkpt lat="-39.48478" lon="176.89334000000002">
    <ele>4.45</ele>
   </trkpt>
   <trkpt lat="-39.48489" lon="176.89336">
    <ele>4.45</ele>
   </trkpt>
   <trkpt lat="-39.48500000000001" lon="176.89334000000002">
    <ele>4.45</ele>
   </trkpt>
   <trkpt lat="-39.48525" lon="176.89322">
    <ele>4.37</ele>
   </trkpt>
   <trkpt lat="-39.48554" lon="176.89306000000002">
    <ele>4.29</ele>
   </trkpt>
   <trkpt lat="-39.48561" lon="176.89299000000003">
    <ele>4.29</ele>
   </trkpt>
   <trkpt lat="-39.485670000000006" lon="176.89288000000002">
    <ele>4.2</ele>
   </trkpt>
   <trkpt lat="-39.48574" lon="176.89271000000002">
    <ele>3.5900000000000003</ele>
   </trkpt>
   <trkpt lat="-39.48575" lon="176.89242000000002">
    <ele>3.49</ele>
   </trkpt>
   <trkpt lat="-39.48566" lon="176.89241">
    <ele>2.9800000000000004</ele>
   </trkpt>
   <trkpt lat="-39.485580000000006" lon="176.89236000000002">
    <ele>2.9600000000000004</ele>
   </trkpt>
   <trkpt lat="-39.48523" lon="176.89199000000002">
    <ele>2.36</ele>
   </trkpt>
   <trkpt lat="-39.48521" lon="176.89194">
    <ele>2.36</ele>
   </trkpt>
   <trkpt lat="-39.48514" lon="176.89147000000003">
    <ele>2.0500000000000003</ele>
   </trkpt>
   <trkpt lat="-39.48509000000001" lon="176.8914">
    <ele>1.9100000000000001</ele>
   </trkpt>
   <trkpt lat="-39.48512" lon="176.89137000000002">
    <ele>1.9100000000000001</ele>
   </trkpt>
   <trkpt lat="-39.48516" lon="176.89122">
    <ele>1.9400000000000002</ele>
   </trkpt>
   <trkpt lat="-39.48527" lon="176.89123">
    <ele>1.9400000000000002</ele>
   </trkpt>
   <trkpt lat="-39.48527" lon="176.89101000000002">
    <ele>2.1</ele>
   </trkpt>
   <trkpt lat="-39.48516" lon="176.89089">
    <ele>2.1</ele>
   </trkpt>
   <trkpt lat="-39.48516" lon="176.89083000000002">
    <ele>2.1</ele>
   </trkpt>
   <trkpt lat="-39.48527" lon="176.89073000000002">
    <ele>2.0900000000000003</ele>
   </trkpt>
   <trkpt lat="-39.48512" lon="176.89015">
    <ele>2.12</ele>
   </trkpt>
   <trkpt lat="-39.485040000000005" lon="176.89002000000002">
    <ele>2.1300000000000003</ele>
   </trkpt>
   <trkpt lat="-39.484640000000006" lon="176.88985000000002">
    <ele>1.67</ele>
   </trkpt>
   <trkpt lat="-39.484185000060094" lon="176.88969499897132">
    <ele>1.6500000000000001</ele>
   </trkpt>
   <trkpt lat="-39.48373" lon="176.88954">
    <ele>1.8200000000000003</ele>
   </trkpt>
   <trkpt lat="-39.48304" lon="176.88920000000002">
    <ele>2.45</ele>
   </trkpt>
   <trkpt lat="-39.48218000000001" lon="176.88887000000003">
    <ele>2.8800000000000003</ele>
   </trkpt>
   <trkpt lat="-39.48212" lon="176.88885000000002">
    <ele>2.91</ele>
   </trkpt>
   <trkpt lat="-39.48198" lon="176.88883">
    <ele>2.89</ele>
   </trkpt>
   <trkpt lat="-39.48185" lon="176.88885000000002">
    <ele>2.9000000000000004</ele>
   </trkpt>
   <trkpt lat="-39.4818" lon="176.88893000000002">
    <ele>2.8800000000000003</ele>
   </trkpt>
   <trkpt lat="-39.4818" lon="176.88914000000003">
    <ele>2.8000000000000003</ele>
   </trkpt>
   <trkpt lat="-39.48171000000001" lon="176.88917">
    <ele>2.7</ele>
   </trkpt>
   <trkpt lat="-39.48172" lon="176.88938000000002">
    <ele>2.8100000000000005</ele>
   </trkpt>
   <trkpt lat="-39.48162000576741" lon="176.8902000022912">
    <ele>2.3000000000000003</ele>
   </trkpt>
   <trkpt lat="-39.481520005775536" lon="176.89102000222454">
    <ele>2.2900000000000005</ele>
   </trkpt>
   <trkpt lat="-39.48142" lon="176.89184">
    <ele>2.2700000000000005</ele>
   </trkpt>
   <trkpt lat="-39.481370000000005" lon="176.89204">
    <ele>2.23</ele>
   </trkpt>
   <trkpt lat="-39.48114500101996" lon="176.89254500179578">
    <ele>1.34</ele>
   </trkpt>
   <trkpt lat="-39.480920000000005" lon="176.89305000000002">
    <ele>1.3200000000000003</ele>
   </trkpt>
   <trkpt lat="-39.480430000000005" lon="176.89344000000003">
    <ele>1.42</ele>
   </trkpt>
   <trkpt lat="-39.47992" lon="176.89356">
    <ele>1.4400000000000002</ele>
   </trkpt>
   <trkpt lat="-39.479620000000004" lon="176.89358000000001">
    <ele>1.42</ele>
   </trkpt>
   <trkpt lat="-39.479490000000006" lon="176.89352000000002">
    <ele>1.3800000000000001</ele>
   </trkpt>
   <trkpt lat="-39.479490000000006" lon="176.89338">
    <ele>1.3900000000000001</ele>
   </trkpt>
   <trkpt lat="-39.479620000000004" lon="176.89302">
    <ele>1.07</ele>
   </trkpt>
   <trkpt lat="-39.47988000108944" lon="176.89249500214612">
    <ele>1.1500000000000001</ele>
   </trkpt>
   <trkpt lat="-39.480140000000006" lon="176.89197000000001">
    <ele>1.3200000000000003</ele>
   </trkpt>
   <trkpt lat="-39.48035" lon="176.89141">
    <ele>1.4000000000000001</ele>
   </trkpt>
   <trkpt lat="-39.48049" lon="176.89105">
    <ele>1.41</ele>
   </trkpt>
   <trkpt lat="-39.480500000000006" lon="176.89068">
    <ele>1.37</ele>
   </trkpt>
   <trkpt lat="-39.48057500302443" lon="176.8898400008763">
    <ele>1.34</ele>
   </trkpt>
   <trkpt lat="-39.480650000000004" lon="176.889">
    <ele>1.42</ele>
   </trkpt>
   <trkpt lat="-39.48057" lon="176.88864">
    <ele>1.4600000000000002</ele>
   </trkpt>
   <trkpt lat="-39.480560000000004" lon="176.88864">
    <ele>3.6500000000000004</ele>
   </trkpt>
   <trkpt lat="-39.480650000000004" lon="176.88905000000003">
    <ele>3.3000000000000003</ele>
   </trkpt>
   <trkpt lat="-39.48057" lon="176.88897">
    <ele>3.3000000000000003</ele>
   </trkpt>
   <trkpt lat="-39.48042" lon="176.88827">
    <ele>3.33</ele>
   </trkpt>
   <trkpt lat="-39.48035" lon="176.88803000000001">
    <ele>3.33</ele>
   </trkpt>
   <trkpt lat="-39.48002" lon="176.88744000000003">
    <ele>2.7800000000000002</ele>
   </trkpt>
   <trkpt lat="-39.4799" lon="176.8872">
    <ele>2.4600000000000004</ele>
   </trkpt>
   <trkpt lat="-39.47979" lon="176.88695">
    <ele>1.98</ele>
   </trkpt>
   <trkpt lat="-39.47943" lon="176.88655000000003">
    <ele>0.58</ele>
   </trkpt>
   <trkpt lat="-39.47936" lon="176.88634000000002">
    <ele>0.58</ele>
   </trkpt>
   <trkpt lat="-39.47921" lon="176.88566">
    <ele>2.4000000000000004</ele>
   </trkpt>
   <trkpt lat="-39.479110000000006" lon="176.88548">
    <ele>2.87</ele>
   </trkpt>
   <trkpt lat="-39.47898" lon="176.88529000000003">
    <ele>2.82</ele>
   </trkpt>
   <trkpt lat="-39.47842" lon="176.88474000000002">
    <ele>2.71</ele>
   </trkpt>
   <trkpt lat="-39.47836" lon="176.88462">
    <ele>2.86</ele>
   </trkpt>
   <trkpt lat="-39.47827" lon="176.88444">
    <ele>3.12</ele>
   </trkpt>
   <trkpt lat="-39.478170000000006" lon="176.88396">
    <ele>3.3800000000000003</ele>
   </trkpt>
   <trkpt lat="-39.47809" lon="176.8839">
    <ele>3.6400000000000006</ele>
   </trkpt>
   <trkpt lat="-39.47798" lon="176.88388">
    <ele>3.6400000000000006</ele>
   </trkpt>
   <trkpt lat="-39.47786" lon="176.88396">
    <ele>3.72</ele>
   </trkpt>
   <trkpt lat="-39.4778" lon="176.88393000000002">
    <ele>3.72</ele>
   </trkpt>
   <trkpt lat="-39.47773" lon="176.88386000000003">
    <ele>3.68</ele>
   </trkpt>
   <trkpt lat="-39.47714666834124" lon="176.88341665922457">
    <ele>3.73</ele>
   </trkpt>
   <trkpt lat="-39.476563334999064" lon="176.88297332588456">
    <ele>3.87</ele>
   </trkpt>
   <trkpt lat="-39.47598" lon="176.88253">
    <ele>3.7800000000000002</ele>
   </trkpt>
   <trkpt lat="-39.47587" lon="176.88241000000002">
    <ele>3.7600000000000002</ele>
   </trkpt>
   <trkpt lat="-39.475750000000005" lon="176.88221000000001">
    <ele>3.8800000000000003</ele>
   </trkpt>
   <trkpt lat="-39.475730000000006" lon="176.88214000000002">
    <ele>3.8800000000000003</ele>
   </trkpt>
   <trkpt lat="-39.475640000000006" lon="176.88204000000002">
    <ele>3.87</ele>
   </trkpt>
   <trkpt lat="-39.47518" lon="176.88179000000002">
    <ele>3.2900000000000005</ele>
   </trkpt>
   <trkpt lat="-39.47448" lon="176.88134000000002">
    <ele>3.5100000000000002</ele>
   </trkpt>
   <trkpt lat="-39.47442" lon="176.88126000000003">
    <ele>3.6100000000000003</ele>
   </trkpt>
   <trkpt lat="-39.47424" lon="176.88089000000002">
    <ele>3.7900000000000005</ele>
   </trkpt>
   <trkpt lat="-39.47417" lon="176.88084">
    <ele>3.7900000000000005</ele>
   </trkpt>
   <trkpt lat="-39.47339" lon="176.88048">
    <ele>4.13</ele>
   </trkpt>
   <trkpt lat="-39.47292" lon="176.88008000000002">
    <ele>3.95</ele>
   </trkpt>
   <trkpt lat="-39.47216" lon="176.87966">
    <ele>3.8800000000000003</ele>
   </trkpt>
   <trkpt lat="-39.471620000720506" lon="176.87923499665973">
    <ele>2.52</ele>
   </trkpt>
   <trkpt lat="-39.47108" lon="176.87881000000002">
    <ele>2.7700000000000005</ele>
   </trkpt>
   <trkpt lat="-39.47099" lon="176.8787">
    <ele>3.1400000000000006</ele>
   </trkpt>
   <trkpt lat="-39.470940000000006" lon="176.87844">
    <ele>3.1400000000000006</ele>
   </trkpt>
   <trkpt lat="-39.4709" lon="176.87839000000002">
    <ele>3.71</ele>
   </trkpt>
   <trkpt lat="-39.470800000000004" lon="176.87832">
    <ele>3.71</ele>
   </trkpt>
   <trkpt lat="-39.47043" lon="176.87818000000001">
    <ele>4.0600000000000005</ele>
   </trkpt>
   <trkpt lat="-39.46999" lon="176.87814">
    <ele>4.24</ele>
   </trkpt>
   <trkpt lat="-39.46967" lon="176.87805">
    <ele>4.36</ele>
   </trkpt>
   <trkpt lat="-39.46907" lon="176.87773">
    <ele>4.37</ele>
   </trkpt>
   <trkpt lat="-39.46889" lon="176.87769">
    <ele>4.580000000000001</ele>
   </trkpt>
   <trkpt lat="-39.46812000108666" lon="176.87732999202183">
    <ele>4.49</ele>
   </trkpt>
   <trkpt lat="-39.46735000106336" lon="176.87696999201106">
    <ele>4.410000000000001</ele>
   </trkpt>
   <trkpt lat="-39.46658" lon="176.87661000000003">
    <ele>4.5200000000000005</ele>
   </trkpt>
   <trkpt lat="-39.466045000441355" lon="176.87632999790267">
    <ele>4.42</ele>
   </trkpt>
   <trkpt lat="-39.46551" lon="176.87605000000002">
    <ele>4.109999999999999</ele>
   </trkpt>
   <trkpt lat="-39.46501499998176" lon="176.87583999841846">
    <ele>4.2</ele>
   </trkpt>
   <trkpt lat="-39.46452" lon="176.87563">
    <ele>4.38</ele>
   </trkpt>
   <trkpt lat="-39.463750000000005" lon="176.87526000000003">
    <ele>4.109999999999999</ele>
   </trkpt>
   <trkpt lat="-39.46452" lon="176.87563">
    <ele>4.38</ele>
   </trkpt>
   <trkpt lat="-39.46501500039591" lon="176.87583999859416">
    <ele>4.2</ele>
   </trkpt>
   <trkpt lat="-39.46551" lon="176.87605000000002">
    <ele>4.109999999999999</ele>
   </trkpt>
   <trkpt lat="-39.466045000230096" lon="176.8763299977921">
    <ele>4.42</ele>
   </trkpt>
   <trkpt lat="-39.46658" lon="176.87661000000003">
    <ele>4.5200000000000005</ele>
   </trkpt>
   <trkpt lat="-39.46735000113324" lon="176.87696999204374">
    <ele>4.410000000000001</ele>
   </trkpt>
   <trkpt lat="-39.468120001156535" lon="176.8773299920545">
    <ele>4.49</ele>
   </trkpt>
   <trkpt lat="-39.46889" lon="176.87769">
    <ele>4.580000000000001</ele>
   </trkpt>
   <trkpt lat="-39.46907" lon="176.87773">
    <ele>4.37</ele>
   </trkpt>
   <trkpt lat="-39.46967" lon="176.87805">
    <ele>4.24</ele>
   </trkpt>
   <trkpt lat="-39.46999" lon="176.87814">
    <ele>4.24</ele>
   </trkpt>
   <trkpt lat="-39.47043" lon="176.87818000000001">
    <ele>3.98</ele>
   </trkpt>
   <trkpt lat="-39.470800000000004" lon="176.87832">
    <ele>3.71</ele>
   </trkpt>
   <trkpt lat="-39.4709" lon="176.87839000000002">
    <ele>3.71</ele>
   </trkpt>
   <trkpt lat="-39.470940000000006" lon="176.87844">
    <ele>3.1400000000000006</ele>
   </trkpt>
   <trkpt lat="-39.47099" lon="176.8787">
    <ele>3.1400000000000006</ele>
   </trkpt>
   <trkpt lat="-39.47108" lon="176.87881000000002">
    <ele>2.7700000000000005</ele>
   </trkpt>
   <trkpt lat="-39.471620000826476" lon="176.87923499674312">
    <ele>2.52</ele>
   </trkpt>
   <trkpt lat="-39.47216" lon="176.87966">
    <ele>3.8800000000000003</ele>
   </trkpt>
   <trkpt lat="-39.47292" lon="176.88008000000002">
    <ele>3.97</ele>
   </trkpt>
   <trkpt lat="-39.47339" lon="176.88048">
    <ele>4.13</ele>
   </trkpt>
   <trkpt lat="-39.47417" lon="176.88084">
    <ele>3.7900000000000005</ele>
   </trkpt>
   <trkpt lat="-39.47424" lon="176.88089000000002">
    <ele>3.7900000000000005</ele>
   </trkpt>
   <trkpt lat="-39.47442" lon="176.88126000000003">
    <ele>3.6100000000000003</ele>
   </trkpt>
   <trkpt lat="-39.47448" lon="176.88134000000002">
    <ele>3.5100000000000002</ele>
   </trkpt>
   <trkpt lat="-39.47518" lon="176.88179000000002">
    <ele>3.2900000000000005</ele>
   </trkpt>
   <trkpt lat="-39.475640000000006" lon="176.88204000000002">
    <ele>3.8800000000000003</ele>
   </trkpt>
   <trkpt lat="-39.475730000000006" lon="176.88214000000002">
    <ele>3.8800000000000003</ele>
   </trkpt>
   <trkpt lat="-39.475750000000005" lon="176.88221000000001">
    <ele>3.8800000000000003</ele>
   </trkpt>
   <trkpt lat="-39.47587" lon="176.88241000000002">
    <ele>3.7600000000000002</ele>
   </trkpt>
   <trkpt lat="-39.47598" lon="176.88253">
    <ele>3.7800000000000002</ele>
   </trkpt>
   <trkpt lat="-39.47656333502555" lon="176.88297332590474">
    <ele>3.87</ele>
   </trkpt>
   <trkpt lat="-39.47714666836774" lon="176.8834166592447">
    <ele>3.73</ele>
   </trkpt>
   <trkpt lat="-39.47773" lon="176.88386000000003">
    <ele>3.68</ele>
   </trkpt>
   <trkpt lat="-39.4778" lon="176.88393000000002">
    <ele>3.72</ele>
   </trkpt>
   <trkpt lat="-39.47786" lon="176.88396">
    <ele>3.72</ele>
   </trkpt>
   <trkpt lat="-39.47798" lon="176.88388">
    <ele>3.6400000000000006</ele>
   </trkpt>
   <trkpt lat="-39.47809" lon="176.8839">
    <ele>3.6400000000000006</ele>
   </trkpt>
   <trkpt lat="-39.478170000000006" lon="176.88396">
    <ele>3.3800000000000003</ele>
   </trkpt>
   <trkpt lat="-39.47827" lon="176.88444">
    <ele>3.12</ele>
   </trkpt>
   <trkpt lat="-39.47842" lon="176.88474000000002">
    <ele>2.71</ele>
   </trkpt>
   <trkpt lat="-39.47898" lon="176.88529000000003">
    <ele>2.82</ele>
   </trkpt>
   <trkpt lat="-39.47921" lon="176.88566">
    <ele>2.4000000000000004</ele>
   </trkpt>
   <trkpt lat="-39.47936" lon="176.88634000000002">
    <ele>0.55</ele>
   </trkpt>
   <trkpt lat="-39.47943" lon="176.88655000000003">
    <ele>0.58</ele>
   </trkpt>
   <trkpt lat="-39.47979" lon="176.88695">
    <ele>1.98</ele>
   </trkpt>
   <trkpt lat="-39.4799" lon="176.8872">
    <ele>2.4600000000000004</ele>
   </trkpt>
   <trkpt lat="-39.48008" lon="176.88757">
    <ele>2.9899999999999998</ele>
   </trkpt>
   <trkpt lat="-39.48035" lon="176.88803000000001">
    <ele>3.33</ele>
   </trkpt>
   <trkpt lat="-39.48042" lon="176.88827">
    <ele>3.33</ele>
   </trkpt>
   <trkpt lat="-39.48053" lon="176.88876000000002">
    <ele>3.25</ele>
   </trkpt>
   <trkpt lat="-39.480430005560436" lon="176.8899000016985">
    <ele>1.35</ele>
   </trkpt>
   <trkpt lat="-39.48033" lon="176.89104">
    <ele>1.36</ele>
   </trkpt>
   <trkpt lat="-39.4799966733187" lon="176.89192000838395">
    <ele>1.0</ele>
   </trkpt>
   <trkpt lat="-39.479663340004485" lon="176.89280000833338">
    <ele>0.88</ele>
   </trkpt>
   <trkpt lat="-39.479330000000004" lon="176.89368000000002">
    <ele>1.0</ele>
   </trkpt>
   <trkpt lat="-39.48006999992902" lon="176.89360500080758">
    <ele>1.31</ele>
   </trkpt>
   <trkpt lat="-39.480810000000005" lon="176.89353000000003">
    <ele>3.5100000000000002</ele>
   </trkpt>
   <trkpt lat="-39.48127" lon="176.89278000000002">
    <ele>0.8</ele>
   </trkpt>
   <trkpt lat="-39.48145" lon="176.89201000000003">
    <ele>1.2100000000000002</ele>
   </trkpt>
   <trkpt lat="-39.481370000000005" lon="176.89204">
    <ele>2.23</ele>
   </trkpt>
   <trkpt lat="-39.48142" lon="176.89184">
    <ele>2.23</ele>
   </trkpt>
   <trkpt lat="-39.48154000425985" lon="176.8908450015513">
    <ele>2.2600000000000002</ele>
   </trkpt>
   <trkpt lat="-39.481660000000005" lon="176.88985000000002">
    <ele>2.58</ele>
   </trkpt>
   <trkpt lat="-39.481660000000005" lon="176.88984000000002">
    <ele>2.58</ele>
   </trkpt>
   <trkpt lat="-39.48172" lon="176.88938000000002">
    <ele>2.8100000000000005</ele>
   </trkpt>
   <trkpt lat="-39.48171000000001" lon="176.88917">
    <ele>2.7</ele>
   </trkpt>
   <trkpt lat="-39.4818" lon="176.88914000000003">
    <ele>2.8000000000000003</ele>
   </trkpt>
   <trkpt lat="-39.4818" lon="176.88893000000002">
    <ele>2.8800000000000003</ele>
   </trkpt>
   <trkpt lat="-39.48183" lon="176.88888">
    <ele>2.8800000000000003</ele>
   </trkpt>
   <trkpt lat="-39.48185" lon="176.88885000000002">
    <ele>2.9000000000000004</ele>
   </trkpt>
   <trkpt lat="-39.48198" lon="176.88883">
    <ele>2.89</ele>
   </trkpt>
   <trkpt lat="-39.48212" lon="176.88885000000002">
    <ele>2.91</ele>
   </trkpt>
   <trkpt lat="-39.482490000000006" lon="176.88899">
    <ele>2.67</ele>
   </trkpt>
   <trkpt lat="-39.48304" lon="176.88920000000002">
    <ele>2.45</ele>
   </trkpt>
   <trkpt lat="-39.48373" lon="176.88954">
    <ele>1.8200000000000003</ele>
   </trkpt>
   <trkpt lat="-39.48411" lon="176.88967000000002">
    <ele>1.7000000000000002</ele>
   </trkpt>
   <trkpt lat="-39.484640000000006" lon="176.88985000000002">
    <ele>1.67</ele>
   </trkpt>
   <trkpt lat="-39.485040000000005" lon="176.89002000000002">
    <ele>2.1300000000000003</ele>
   </trkpt>
   <trkpt lat="-39.48512" lon="176.89015">
    <ele>2.12</ele>
   </trkpt>
   <trkpt lat="-39.48527" lon="176.89073000000002">
    <ele>2.0900000000000003</ele>
   </trkpt>
   <trkpt lat="-39.48516" lon="176.89083000000002">
    <ele>2.1</ele>
   </trkpt>
   <trkpt lat="-39.48516" lon="176.89089">
    <ele>2.1</ele>
   </trkpt>
   <trkpt lat="-39.48527" lon="176.89101000000002">
    <ele>2.1</ele>
   </trkpt>
   <trkpt lat="-39.48527" lon="176.89123">
    <ele>1.9400000000000002</ele>
   </trkpt>
   <trkpt lat="-39.48516" lon="176.89122">
    <ele>1.9400000000000002</ele>
   </trkpt>
   <trkpt lat="-39.48512" lon="176.89137000000002">
    <ele>1.9100000000000001</ele>
   </trkpt>
   <trkpt lat="-39.48509000000001" lon="176.8914">
    <ele>1.9100000000000001</ele>
   </trkpt>
   <trkpt lat="-39.48514" lon="176.89147000000003">
    <ele>2.0500000000000003</ele>
   </trkpt>
   <trkpt lat="-39.48521" lon="176.89194">
    <ele>2.36</ele>
   </trkpt>
   <trkpt lat="-39.48523" lon="176.89199000000002">
    <ele>2.36</ele>
   </trkpt>
   <trkpt lat="-39.485580000000006" lon="176.89236000000002">
    <ele>2.9600000000000004</ele>
   </trkpt>
   <trkpt lat="-39.48566" lon="176.89241">
    <ele>2.9800000000000004</ele>
   </trkpt>
   <trkpt lat="-39.48565" lon="176.89257">
    <ele>2.9400000000000004</ele>
   </trkpt>
   <trkpt lat="-39.48575" lon="176.89260000000002">
    <ele>3.5900000000000003</ele>
   </trkpt>
   <trkpt lat="-39.48574" lon="176.89271000000002">
    <ele>3.5900000000000003</ele>
   </trkpt>
   <trkpt lat="-39.48561" lon="176.89299000000003">
    <ele>4.29</ele>
   </trkpt>
   <trkpt lat="-39.48554" lon="176.89306000000002">
    <ele>4.29</ele>
   </trkpt>
   <trkpt lat="-39.48500000000001" lon="176.89334000000002">
    <ele>4.45</ele>
   </trkpt>
   <trkpt lat="-39.48489" lon="176.89336">
    <ele>4.45</ele>
   </trkpt>
   <trkpt lat="-39.48478" lon="176.89334000000002">
    <ele>4.45</ele>
   </trkpt>
   <trkpt lat="-39.48474" lon="176.89335000000003">
    <ele>4.45</ele>
   </trkpt>
   <trkpt lat="-39.484640000000006" lon="176.89343000000002">
    <ele>4.08</ele>
   </trkpt>
   <trkpt lat="-39.48405" lon="176.89375">
    <ele>4.050000000000001</ele>
   </trkpt>
   <trkpt lat="-39.48395" lon="176.89382">
    <ele>4.050000000000001</ele>
   </trkpt>
   <trkpt lat="-39.48384" lon="176.89383">
    <ele>3.9000000000000004</ele>
   </trkpt>
   <trkpt lat="-39.483170000684986" lon="176.894195003454">
    <ele>3.74</ele>
   </trkpt>
   <trkpt lat="-39.4825" lon="176.89456">
    <ele>3.5</ele>
   </trkpt>
   <trkpt lat="-39.482330000000005" lon="176.89471">
    <ele>3.6</ele>
   </trkpt>
   <trkpt lat="-39.48219" lon="176.89469000000003">
    <ele>3.3800000000000003</ele>
   </trkpt>
   <trkpt lat="-39.48212" lon="176.89476000000002">
    <ele>3.3800000000000003</ele>
   </trkpt>
   <trkpt lat="-39.48185" lon="176.89488">
    <ele>3.24</ele>
   </trkpt>
   <trkpt lat="-39.481730000000006" lon="176.89496000000003">
    <ele>3.36</ele>
   </trkpt>
   <trkpt lat="-39.48169" lon="176.895">
    <ele>3.39</ele>
   </trkpt>
   <trkpt lat="-39.48167" lon="176.8951">
    <ele>3.39</ele>
   </trkpt>
   <trkpt lat="-39.481750003724144" lon="176.89603499869284">
    <ele>3.25</ele>
   </trkpt>
   <trkpt lat="-39.48183" lon="176.89697">
    <ele>3.35</ele>
   </trkpt>
   <trkpt lat="-39.48176" lon="176.89731">
    <ele>3.25</ele>
   </trkpt>
   <trkpt lat="-39.48149" lon="176.89761000000001">
    <ele>3.2</ele>
   </trkpt>
   <trkpt lat="-39.481320000000004" lon="176.89770000000001">
    <ele>3.16</ele>
   </trkpt>
   <trkpt lat="-39.48129" lon="176.89770000000001">
    <ele>3.0500000000000003</ele>
   </trkpt>
   <trkpt lat="-39.481260000000006" lon="176.89765000000003">
    <ele>3.0500000000000003</ele>
   </trkpt>
   <trkpt lat="-39.48115000000001" lon="176.89732">
    <ele>2.8100000000000005</ele>
   </trkpt>
   <trkpt lat="-39.480960002619746" lon="176.89653499777586">
    <ele>2.74</ele>
   </trkpt>
   <trkpt lat="-39.48077" lon="176.89575000000002">
    <ele>2.93</ele>
   </trkpt>
   <trkpt lat="-39.48073" lon="176.89568000000003">
    <ele>3.04</ele>
   </trkpt>
   <trkpt lat="-39.48062" lon="176.89562">
    <ele>3.04</ele>
   </trkpt>
   <trkpt lat="-39.48055" lon="176.89523000000003">
    <ele>3.34</ele>
   </trkpt>
   <trkpt lat="-39.48053" lon="176.89518">
    <ele>3.34</ele>
   </trkpt>
   <trkpt lat="-39.48046" lon="176.89517">
    <ele>3.36</ele>
   </trkpt>
   <trkpt lat="-39.480180000000004" lon="176.89524">
    <ele>3.36</ele>
   </trkpt>
   <trkpt lat="-39.479505000202046" lon="176.89545000203384">
    <ele>3.7600000000000002</ele>
   </trkpt>
   <trkpt lat="-39.47883" lon="176.89566000000002">
    <ele>3.58</ele>
   </trkpt>
   <trkpt lat="-39.47858" lon="176.89593000000002">
    <ele>4.0600000000000005</ele>
   </trkpt>
  </trkseg>
 </trk>
</gpx>
